satname,norad_id,inclination_deg,eccentricity,mean_motion_rev_per_day,perigee_km,apogee_km,l1,l2
STARLINK-1183,45088,53.0548,0.0001242,15.06398091,546.3572797369425,548.0775377720765,1 45088U 20006AW  25337.36371353  .00002891  00000+0  21292-3 0  9992,2 45088  53.0548 319.0430 0001242  87.1940 272.9192 15.06398091322506
STARLINK-1142,45093,53.0264,0.0008574,15.79944846,324.8446915424629,336.3488281938835,1 45093U 20006BB  25337.91670139  .00390335  00000+0  19719-2 0  9996,2 45093  53.0264 234.7273 0008574 154.7060 331.9262 15.79944846  6018
STARLINK-1152,45096,53.0469,0.0004342,15.27319957,480.8484036633463,486.8073339554203,1 45096U 20006BE  25337.21574669  .00085000  00000+0  31111-2 0  9993,2 45096  53.0469 297.4818 0004342   0.3570 359.7430 15.27319957322793
STARLINK-1184,45098,53.0582,0.00014,15.06396622,546.2523607935573,548.1914612886494,1 45098U 20006BG  25337.64384580 -.00000042  00000+0  16067-4 0  9992,2 45098  53.0582 317.7870 0001400 101.8242 258.2904 15.06396622322543
STARLINK-1193,45100,53.0555,0.0001202,15.06398837,546.3826950429584,548.0475496931767,1 45100U 20006BJ  25337.64015649  .00001143  00000+0  95584-4 0  9996,2 45100  53.0555 317.7997 0001202  95.4030 264.7097 15.06398837322545
STARLINK-1143,45179,53.053,0.000493,15.44743423,428.7746145690635,435.48953987920686,1 45179U 20012B   25337.55414182  .00030216  00000+0  64254-3 0  9996,2 45179  53.0530  73.3663 0004930 159.5764 200.5440 15.44743423320989
STARLINK-1202,45183,53.0551,0.00013,15.06419478,546.2515737648919,548.0521488688337,1 45183U 20012F   25337.70279139  .00002380  00000+0  17851-3 0  9991,2 45183  53.0551 117.5216 0001300  85.2688 274.8449 15.06419478320374
STARLINK-1216,45185,53.0557,0.0001447,15.06399266,546.2117092816234,548.2159058053276,1 45185U 20012H   25337.69545263  .00000386  00000+0  44819-4 0  9994,2 45185  53.0557 117.5512 0001447  97.8591 262.2562 15.06399266320318
STARLINK-1225,45187,53.0542,0.0001105,15.06402043,546.4400461208434,547.970546768357,1 45187U 20012K   25337.64751970  .00000914  00000+0  80253-4 0  9994,2 45187  53.0542 117.7675 0001105  91.5044 268.6072 15.06402043320359
STARLINK-1230,45189,53.0558,0.0001249,15.06404623,546.332414880143,548.0623634105523,1 45189U 20012M   25337.65120381  .00000880  00000+0  77978-4 0  9995,2 45189  53.0558 117.7552 0001249  92.5678 267.5454 15.06404623317584
STARLINK-1234,45190,53.0509,0.0005174,15.41827463,437.1878503259204,444.24399933253335,1 45190U 20012N   25337.91670139  .00056665  00000+0  13159-2 0  9998,2 45190  53.0509  65.9682 0005174 322.2087 318.3867 15.41827463  5822
STARLINK-1269,45197,53.053,0.0001335,15.06411739,546.2510505982373,548.1001090570517,1 45197U 20012V   25337.66225767  .00003351  00000+0  24366-3 0  9997,2 45197  53.0530 117.7024 0001335  87.0746 273.0396 15.06411739320338
STARLINK-1154,45198,53.0561,0.0001082,15.06391866,546.4871621775847,547.9858130002976,1 45198U 20012W   25337.65305777 -.00000541  00000+0 -17445-4 0  9998,2 45198  53.0561  97.7436 0001082  64.5404 295.5697 15.06391866320585
STARLINK-1199,45201,53.0552,0.0001325,15.06404613,546.2798129831281,548.1150266043742,1 45201U 20012Z   25337.59775616  .00000529  00000+0  54393-4 0  9996,2 45201  53.0552  97.9937 0001325  86.4552 273.6588 15.06404613320632
STARLINK-1209,45206,53.053,0.0005623,15.35299896,456.18476494779316,463.8749674054952,1 45206U 20012AE  25337.91670139  .00045940  00000+0  13235-2 0  9995,2 45206  53.0530  68.0604 0005623 327.6614 316.6752 15.35299896  5804
STARLINK-1210,45207,53.0219,0.0003432,15.65424565,369.7013394688529,374.33464585581623,1 45207U 20012AF  25337.83335647  .00050765  00000+0  50111-3 0  9995,2 45207  53.0219  23.7398 0003432 148.2418  42.5607 15.65424565  5925
STARLINK-1231,45212,53.0495,0.0004872,15.14623991,518.7585219686353,525.4821327083937,1 45212U 20012AL  25337.59264243  .00064709  00000+0  34460-2 0  9998,2 45212  53.0495  94.7315 0004872 140.0526 220.0826 15.14623991320635
STARLINK-1271,45217,53.0553,0.0001337,15.06406235,546.2665320799124,548.1183651744741,1 45217U 20012AR  25337.64936080  .00000877  00000+0  77745-4 0  9995,2 45217  53.0553  97.7604 0001337  93.5344 266.5797 15.06406235320646
STARLINK-1191,45222,53.0546,0.0001351,15.06410984,546.2422837226686,548.1135038069651,1 45222U 20012AW  25337.59223041  .00004908  00000+0  34805-3 0  9999,2 45222  53.0546  78.0136 0001351  79.0024 281.1117 15.06410984320911
STARLINK-1212,45223,53.0551,0.0001418,15.06425136,546.1525172880874,548.1165242913821,1 45223U 20012AX  25337.61073543  .00003544  00000+0  25651-3 0  9997,2 45223  53.0551  78.5893 0001418  83.2529 276.8621 15.06425136320910
STARLINK-1215,45225,53.0563,0.000156,15.06421743,546.0645755969244,548.2252635558334,1 45225U 20012AZ  25337.56641648  .00005075  00000+0  35913-3 0  9993,2 45225  53.0563  78.1314 0001560  92.4809 267.6359 15.06421743320860
STARLINK-1221,45227,53.0688,0.0005271,15.38106049,448.1101924450777,455.31021736849107,1 45227U 20012BB  25337.79851529  .00021095  00000+0  56275-3 0  9995,2 45227  53.0688   2.6919 0005271  67.2213 292.9346 15.38106049321935
STARLINK-1222,45228,53.057,8.46e-05,15.1096478,532.6716946548695,533.8411024179031,1 45228U 20012BC  25337.57867128  .00004397  00000+0  27782-3 0  9991,2 45228  53.0570  77.8577 0000846  73.2515 286.8569 15.10964780320803
STARLINK-1226,45229,53.0546,0.0001284,15.06410331,546.2906844028394,548.0691057814984,1 45229U 20012BD  25337.56273260  .00002371  00000+0  17795-3 0  9992,2 45229  53.0546  78.1484 0001284  79.6346 280.4788 15.06410331320803
STARLINK-1227,45230,53.0549,0.0001176,15.06417766,546.342693655055,547.9715228293135,1 45230U 20012BE  25337.55904723  .00003366  00000+0  24465-3 0  9995,2 45230  53.0549  78.1647 0001176  88.2286 271.8838 15.06417766320920
STARLINK-1246,45235,53.0543,0.0001341,15.06415725,546.2346807185895,548.0920462760796,1 45235U 20012BK  25337.64014925  .00002239  00000+0  16910-3 0  9990,2 45235  53.0543 117.8011 0001341  89.2678 270.8465 15.06415725320383
STARLINK-1270,45237,53.0554,0.0001554,15.06406332,546.1159551881128,548.2683474883488,1 45237U 20012BM  25337.51113713  .00001328  00000+0  10803-3 0  9996,2 45237  53.0554  78.3821 0001554 106.5813 253.5347 15.06406332320906
STARLINK-1279,45360,53.0503,0.0009421,15.39537694,441.04500353579533,453.90582244435154,1 45360U 20019A   25337.81310269  .00102024  00000+0  25300-2 0  9990,2 45360  53.0503 197.3002 0009421 118.8018 241.3932 15.39537694315826
STARLINK-1301,45361,53.0495,0.0008839,15.42305693,433.2803445994605,445.33222083464807,1 45361U 20019B   25337.78473061  .00097956  00000+0  22182-2 0  9999,2 45361  53.0495 206.5403 0008839 113.2386 246.9550 15.42305693315704
STARLINK-1306,45362,53.0388,0.0004018,15.83210293,318.6770014617796,324.0607243732202,1 45362U 20019C   25337.83335647  .00228778  00000+0  10151-2 0  9994,2 45362  53.0388 187.6150 0004018  87.1681 357.9175 15.83210293  6019
STARLINK-1262,45366,53.0533,0.0001887,15.06394435,545.9217974229323,548.5354304056236,1 45366U 20019G   25336.95826603  .00002598  00000+0  19328-3 0  9993,2 45366  53.0533 240.8570 0001887 104.9693 255.1506 15.06394435315156
STARLINK-1273,45367,53.0532,0.0001624,15.06393758,546.1060091226573,548.355368547991,1 45367U 20019H   25337.17942538  .00002192  00000+0  16603-3 0  9998,2 45367  53.0532 239.8668 0001624  86.4592 273.6583 15.06393758315183
STARLINK-1276,45368,53.0544,0.0001292,15.06394681,546.3331028152625,548.1226170950749,1 45368U 20019J   25337.14993453  .00006846  00000+0  47811-3 0  9993,2 45368  53.0544 240.0036 0001292  87.2535 272.8602 15.06394681315186
STARLINK-1277,45369,53.0531,0.00018,15.06398288,545.9702412917786,548.4633686615707,1 45369U 20019K   25337.00994676  .00003955  00000+0  28430-3 0  9991,2 45369  53.0531 241.2547 0001800  99.0356 261.0837 15.06398288315154
STARLINK-1281,45370,53.0544,0.0001526,15.06395509,546.1685119502781,548.282132531026,1 45370U 20019L   25337.47060013 -.00001721  00000+0 -96698-4 0  9996,2 45370  53.0544 238.5637 0001526  94.2672 265.8492 15.06395509315233
STARLINK-1300,45374,53.0546,0.0002008,15.06411348,545.7861751643686,548.5673811776815,1 45374U 20019Q   25337.75810875  .00004232  00000+0  30276-3 0  9997,2 45374  53.0546 237.2707 0002008  92.0717 268.0502 15.06411348315276
STARLINK-1302,45375,53.0537,0.0001302,15.06410015,546.279187189919,548.0825399615942,1 45375U 20019R   25337.44113546  .00019222  00000+0  13055-2 0  9995,2 45375  53.0537 238.6946 0001302 115.6023 244.5101 15.06410015315224
STARLINK-1304,45376,53.0549,0.000173,15.06408162,545.9884617238822,548.3846236696554,1 45376U 20019S   25337.45955072  .00021439  00000+0  14534-2 0  9991,2 45376  53.0549 238.6109 0001730 110.8959 249.2215 15.06408162315227
STARLINK-1305,45377,53.052,0.0008311,15.35998413,452.2750629457696,463.6380176284356,1 45377U 20019T   25337.40357810  .00081497  00000+0  22758-2 0  9990,2 45377  53.0520 230.2704 0008311 107.8836 252.3073 15.35998413315343
STARLINK-1319,45379,53.0527,0.0006993,15.40782319,439.0285741688931,448.5697340740462,1 45379U 20019V   25336.93583356  .00090414  00000+0  21577-2 0  9992,2 45379  53.0527 233.8116 0006993 112.8709 247.3034 15.40782319315250
STARLINK-1266,45383,53.0544,0.0001468,15.06404973,546.1796775205949,548.2129553823052,1 45383U 20019Z   25337.81155394  .00007494  00000+0  52139-3 0  9997,2 45383  53.0544 217.0339 0001468  92.0458 268.0699 15.06404973315556
STARLINK-1267,45384,53.0542,0.0001502,15.06391886,546.196235202644,548.2766173799009,1 45384U 20019AA  25337.06707583 -.00001972  00000+0 -11354-3 0  9999,2 45384  53.0542 221.0324 0001502  87.2740 272.8421 15.06391886315434
STARLINK-1272,45386,53.0509,0.0009025,15.39150021,442.46034820524164,454.7826472936804,1 45386U 20019AC  25337.80109090  .00090813  00000+0  22855-2 0  9999,2 45386  53.0509 207.9099 0009025 118.4814 241.7100 15.39150021315684
